METHANESAT              
1 59101U 24043D   25289.07147639  .00004855  00000+0  43523-3 0  9993
2 59101  97.8151  54.7064 0011570 104.8668 255.3835 14.96200173 88125
GOSAT-GW (IBUKI GW)     
1 64694U 25141A   25286.23775792  .00001327  00000+0  24215-3 0  9996
2 64694  98.0323 222.8766 0001440  84.3858 275.7511 14.67572590 15622
GHGSAT-C1               
1 46278U 20061G   25289.19252487  .00030170  00000+0  44487-3 0  9990
2 46278  97.2386   3.9916 0001686 182.3433 177.7814 15.55343235285362
GHGSAT-C12              
1 64529U 25135B   25289.22396587  .00006192  00000+0  30816-3 0  9998
2 64529  97.4572  41.8960 0004051 313.2977  46.7918 15.17954478 17781
GHGSAT-C13              
1 64548U 25135W   25289.14942304  .00005704  00000+0  27733-3 0  9996
2 64548  97.4598  42.0286 0000690 156.0319 204.0948 15.18807980 17780
GHGSAT-C2               
1 47509U 21006DA  25289.12212215  .00008835  00000+0  27081-3 0  9990
2 47509  97.2545 335.6108 0004776 342.7220  17.3860 15.34001628262385
GHGSAT-C3               
1 52737U 22057F   25289.15701118  .00010120  00000+0  34945-3 0  9991
2 52737  97.6285  61.9337 0005461 263.8984  96.1633 15.30142862188162
GHGSAT-C4               
1 52746U 22057Q   25289.17576333  .00010795  00000+0  37259-3 0  9991
2 52746  97.6213  61.0282 0005793 246.7980 113.2650 15.30134595188172
GHGSAT-C5               
1 52744U 22057N   25289.19258639  .00010828  00000+0  37381-3 0  9990
2 52744  97.6374  63.2602 0006482 259.7321 100.3188 15.30124302188175
GHGSAT-C6               
1 56204U 23054AC  25289.19829185  .00016977  00000+0  36471-3 0  9993
2 56204  97.3169 190.9275 0007700 193.4955 166.6089 15.44722507140689
GHGSAT-C7               
1 56209U 23054AH  25289.19764948  .00014566  00000+0  32617-3 0  9993
2 56209  97.3129 190.3091 0007958 188.7118 171.3993 15.43522984140675
GHGSAT-C8               
1 56186U 23054J   25289.17222190  .00016806  00000+0  36107-3 0  9990
2 56186  97.3137 190.3527 0004400 208.8765 151.2241 15.44741701140666
SENTINEL-5P             
1 42969U 17064A   25289.10904351  .00000156  00000+0  94800-4 0  9993
2 42969  98.7682 228.2322 0001017  91.9674 268.1618 14.19558949414936
ENMAP                   
1 52159U 22033C   25289.21580918  .00000917  00000+0  14405-3 0  9995
2 52159  97.9779   9.9612 0001295  76.9253 283.2100 14.74939185190690
PRISMA                  
1 44072U 19015A   25289.20375750  .00001592  00000+0  19928-3 0  9996
2 44072  97.8757   2.4713 0001004 102.1482 257.9844 14.83651869355870
SENTINEL-2A             
1 40697U 15028A   25288.73913546  .00000219  00000+0  10020-3 0  9992
2 40697  98.5682   2.0887 0001164  96.3563 263.7753 14.30824369538778
SENTINEL-2B             
1 42063U 17013A   25289.22149360  .00000220  00000+0  10057-3 0  9999
2 42063  98.5684   2.5002 0000981  93.0324 267.0971 14.30815376449754
SENTINEL-2C             
1 60989U 24157A   25289.18665638  .00000196  00000+0  91527-4 0  9993
2 60989  98.5661   2.5265 0000974  94.1109 266.0185 14.30827176 58092
LANDSAT 8               
1 39084U 13008A   25289.17998416  .00000560  00000+0  13430-3 0  9991
2 39084  98.2137 358.0825 0001253  92.1607 267.9735 14.57115860662363
LANDSAT 9               
1 49260U 21088A   25289.14572896  .00000717  00000+0  16916-3 0  9998
2 49260  98.2159 358.0709 0001320  88.1712 271.9638 14.57111106215463
